CCSDS_OMM_VERS = 2.0
CREATION_DATE  = 
ORIGINATOR     = 

OBJECT_NAME    = STARLINK-36840
OBJECT_ID      = 2026-034A
CENTER_NAME    = EARTH
REF_FRAME      = TEME
TIME_SYSTEM    = UTC
MEAN_ELEMENT_THEORY = SGP/SGP4

EPOCH          = 2026-03-05T17:58:16.548960
MEAN_MOTION    = 15.80967512
ECCENTRICITY   = .0000736
INCLINATION    = 53.1591
RA_OF_ASC_NODE = 231.1085
ARG_OF_PERICENTER = 66.1685
MEAN_ANOMALY   = 293.9415

EPHEMERIS_TYPE = 0
CLASSIFICATION_TYPE = U
NORAD_CAT_ID   = 67850
ELEMENT_SET_NO = 999
REV_AT_EPOCH   = 331
BSTAR          = .11479E-2
MEAN_MOTION_DOT = .233095E-2
MEAN_MOTION_DDOT = 0

CCSDS_OMM_VERS = 2.0
CREATION_DATE  = 
ORIGINATOR     = 

OBJECT_NAME    = STARLINK-36348
OBJECT_ID      = 2026-034B
CENTER_NAME    = EARTH
REF_FRAME      = TEME
TIME_SYSTEM    = UTC
MEAN_ELEMENT_THEORY = SGP/SGP4

EPOCH          = 2026-03-05T17:57:11.761056
MEAN_MOTION    = 15.80965124
ECCENTRICITY   = .0000833
INCLINATION    = 53.1591
RA_OF_ASC_NODE = 231.1027
ARG_OF_PERICENTER = 63.9371
MEAN_ANOMALY   = 296.1737

EPHEMERIS_TYPE = 0
CLASSIFICATION_TYPE = U
NORAD_CAT_ID   = 67851
ELEMENT_SET_NO = 999
REV_AT_EPOCH   = 331
BSTAR          = .11207E-2
MEAN_MOTION_DOT = .227387E-2
MEAN_MOTION_DDOT = 0

CCSDS_OMM_VERS = 2.0
CREATION_DATE  = 
ORIGINATOR     = 

OBJECT_NAME    = STARLINK-36276
OBJECT_ID      = 2026-034C
CENTER_NAME    = EARTH
REF_FRAME      = TEME
TIME_SYSTEM    = UTC
MEAN_ELEMENT_THEORY = SGP/SGP4

EPOCH          = 2026-03-05T17:56:06.844416
MEAN_MOTION    = 15.80965579
ECCENTRICITY   = .0000751
INCLINATION    = 53.1592
RA_OF_ASC_NODE = 231.0978
ARG_OF_PERICENTER = 41.1666
MEAN_ANOMALY   = 318.9413

EPHEMERIS_TYPE = 0
CLASSIFICATION_TYPE = U
NORAD_CAT_ID   = 67852
ELEMENT_SET_NO = 999
REV_AT_EPOCH   = 331
BSTAR          = .10845E-2
MEAN_MOTION_DOT = .219831E-2
MEAN_MOTION_DDOT = 0

CCSDS_OMM_VERS = 2.0
CREATION_DATE  = 
ORIGINATOR     = 

OBJECT_NAME    = STARLINK-36785
OBJECT_ID      = 2026-034D
CENTER_NAME    = EARTH
REF_FRAME      = TEME
TIME_SYSTEM    = UTC
MEAN_ELEMENT_THEORY = SGP/SGP4

EPOCH          = 2026-03-05T19:26:04.795872
MEAN_MOTION    = 15.80911357
ECCENTRICITY   = .0001894
INCLINATION    = 53.1593
RA_OF_ASC_NODE = 230.7756
ARG_OF_PERICENTER = 46.1051
MEAN_ANOMALY   = 314.0128

EPHEMERIS_TYPE = 0
CLASSIFICATION_TYPE = U
NORAD_CAT_ID   = 67853
ELEMENT_SET_NO = 999
REV_AT_EPOCH   = 332
BSTAR          = .68278E-3
MEAN_MOTION_DOT = .136455E-2
MEAN_MOTION_DDOT = 0

CCSDS_OMM_VERS = 2.0
CREATION_DATE  = 
ORIGINATOR     = 

OBJECT_NAME    = STARLINK-36608
OBJECT_ID      = 2026-034E
CENTER_NAME    = EARTH
REF_FRAME      = TEME
TIME_SYSTEM    = UTC
MEAN_ELEMENT_THEORY = SGP/SGP4

EPOCH          = 2026-03-05T19:24:59.582880
MEAN_MOTION    = 15.80924466
ECCENTRICITY   = .0000667
INCLINATION    = 53.1595
RA_OF_ASC_NODE = 230.7707
ARG_OF_PERICENTER = 55.1015
MEAN_ANOMALY   = 305.0070

EPHEMERIS_TYPE = 0
CLASSIFICATION_TYPE = U
NORAD_CAT_ID   = 67854
ELEMENT_SET_NO = 999
REV_AT_EPOCH   = 331
BSTAR          = .67792E-3
MEAN_MOTION_DOT = .13554E-2
MEAN_MOTION_DDOT = 0

CCSDS_OMM_VERS = 2.0
CREATION_DATE  = 
ORIGINATOR     = 

OBJECT_NAME    = STARLINK-36838
OBJECT_ID      = 2026-034F
CENTER_NAME    = EARTH
REF_FRAME      = TEME
TIME_SYSTEM    = UTC
MEAN_ELEMENT_THEORY = SGP/SGP4

EPOCH          = 2026-03-05T19:23:54.907296
MEAN_MOTION    = 15.80925589
ECCENTRICITY   = .0001192
INCLINATION    = 53.1594
RA_OF_ASC_NODE = 230.7654
ARG_OF_PERICENTER = 37.7557
MEAN_ANOMALY   = 322.3549

EPHEMERIS_TYPE = 0
CLASSIFICATION_TYPE = U
NORAD_CAT_ID   = 67855
ELEMENT_SET_NO = 999
REV_AT_EPOCH   = 332
BSTAR          = .82553E-3
MEAN_MOTION_DOT = .1658E-2
MEAN_MOTION_DDOT = 0

CCSDS_OMM_VERS = 2.0
CREATION_DATE  = 
ORIGINATOR     = 

OBJECT_NAME    = STARLINK-36843
OBJECT_ID      = 2026-034G
CENTER_NAME    = EARTH
REF_FRAME      = TEME
TIME_SYSTEM    = UTC
MEAN_ELEMENT_THEORY = SGP/SGP4

EPOCH          = 2026-03-05T19:21:45.386784
MEAN_MOTION    = 15.80923260
ECCENTRICITY   = .0001176
INCLINATION    = 53.1593
RA_OF_ASC_NODE = 230.7557
ARG_OF_PERICENTER = 50.6879
MEAN_ANOMALY   = 309.4248

EPHEMERIS_TYPE = 0
CLASSIFICATION_TYPE = U
NORAD_CAT_ID   = 67856
ELEMENT_SET_NO = 999
REV_AT_EPOCH   = 332
BSTAR          = .74048E-3
MEAN_MOTION_DOT = .148327E-2
MEAN_MOTION_DDOT = 0

CCSDS_OMM_VERS = 2.0
CREATION_DATE  = 
ORIGINATOR     = 

OBJECT_NAME    = STARLINK-36828
OBJECT_ID      = 2026-034H
CENTER_NAME    = EARTH
REF_FRAME      = TEME
TIME_SYSTEM    = UTC
MEAN_ELEMENT_THEORY = SGP/SGP4

EPOCH          = 2026-03-05T19:22:50.191968
MEAN_MOTION    = 15.80939599
ECCENTRICITY   = .0002068
INCLINATION    = 53.1591
RA_OF_ASC_NODE = 230.7608
ARG_OF_PERICENTER = 29.0804
MEAN_ANOMALY   = 331.0333

EPHEMERIS_TYPE = 0
CLASSIFICATION_TYPE = U
NORAD_CAT_ID   = 67857
ELEMENT_SET_NO = 999
REV_AT_EPOCH   = 332
BSTAR          = .97667E-3
MEAN_MOTION_DOT = .197138E-2
MEAN_MOTION_DDOT = 0

CCSDS_OMM_VERS = 2.0
CREATION_DATE  = 
ORIGINATOR     = 

OBJECT_NAME    = STARLINK-36837
OBJECT_ID      = 2026-034J
CENTER_NAME    = EARTH
REF_FRAME      = TEME
TIME_SYSTEM    = UTC
MEAN_ELEMENT_THEORY = SGP/SGP4

EPOCH          = 2026-03-05T19:20:40.504704
MEAN_MOTION    = 15.80927956
ECCENTRICITY   = .0001112
INCLINATION    = 53.1595
RA_OF_ASC_NODE = 230.7497
ARG_OF_PERICENTER = 54.1342
MEAN_ANOMALY   = 305.9784

EPHEMERIS_TYPE = 0
CLASSIFICATION_TYPE = U
NORAD_CAT_ID   = 67858
ELEMENT_SET_NO = 999
REV_AT_EPOCH   = 332
BSTAR          = .79115E-3
MEAN_MOTION_DOT = .158752E-2
MEAN_MOTION_DDOT = 0

CCSDS_OMM_VERS = 2.0
CREATION_DATE  = 
ORIGINATOR     = 

OBJECT_NAME    = STARLINK-36393
OBJECT_ID      = 2026-034K
CENTER_NAME    = EARTH
REF_FRAME      = TEME
TIME_SYSTEM    = UTC
MEAN_ELEMENT_THEORY = SGP/SGP4

EPOCH          = 2026-03-05T19:19:35.575104
MEAN_MOTION    = 15.80927892
ECCENTRICITY   = .00008
INCLINATION    = 53.1595
RA_OF_ASC_NODE = 230.7445
ARG_OF_PERICENTER = 80.4461
MEAN_ANOMALY   = 279.6652

EPHEMERIS_TYPE = 0
CLASSIFICATION_TYPE = U
NORAD_CAT_ID   = 67859
ELEMENT_SET_NO = 999
REV_AT_EPOCH   = 332
BSTAR          = .71878E-3
MEAN_MOTION_DOT = .143915E-2
MEAN_MOTION_DDOT = 0

CCSDS_OMM_VERS = 2.0
CREATION_DATE  = 
ORIGINATOR     = 

OBJECT_NAME    = STARLINK-35873
OBJECT_ID      = 2026-034L
CENTER_NAME    = EARTH
REF_FRAME      = TEME
TIME_SYSTEM    = UTC
MEAN_ELEMENT_THEORY = SGP/SGP4

EPOCH          = 2026-03-05T19:18:30.693888
MEAN_MOTION    = 15.80942848
ECCENTRICITY   = .0000949
INCLINATION    = 53.1594
RA_OF_ASC_NODE = 230.7394
ARG_OF_PERICENTER = 41.9266
MEAN_ANOMALY   = 318.1830

EPHEMERIS_TYPE = 0
CLASSIFICATION_TYPE = U
NORAD_CAT_ID   = 67860
ELEMENT_SET_NO = 999
REV_AT_EPOCH   = 335
BSTAR          = .8651E-3
MEAN_MOTION_DOT = .174088E-2
MEAN_MOTION_DDOT = 0

CCSDS_OMM_VERS = 2.0
CREATION_DATE  = 
ORIGINATOR     = 

OBJECT_NAME    = STARLINK-36325
OBJECT_ID      = 2026-034M
CENTER_NAME    = EARTH
REF_FRAME      = TEME
TIME_SYSTEM    = UTC
MEAN_ELEMENT_THEORY = SGP/SGP4

EPOCH          = 2026-03-05T19:17:26.078784
MEAN_MOTION    = 15.80911152
ECCENTRICITY   = .0001371
INCLINATION    = 53.1597
RA_OF_ASC_NODE = 230.7342
ARG_OF_PERICENTER = 39.2945
MEAN_ANOMALY   = 320.8177

EPHEMERIS_TYPE = 0
CLASSIFICATION_TYPE = U
NORAD_CAT_ID   = 67861
ELEMENT_SET_NO = 999
REV_AT_EPOCH   = 332
BSTAR          = .61914E-3
MEAN_MOTION_DOT = .123479E-2
MEAN_MOTION_DDOT = 0

